[ {"name": "ALOS-2", "line1": "1 39766U 14029A   26155.55943948  .00001755  00000+0  24177-3 0  9994", "line2": "2 39766  97.9217 252.9044 0001603  94.8920 265.2475 14.79487434649715"}, {"name": "KAZEOSAT 2", "line1": "1 40010U 14033A   26156.17249190  .00000489  00000+0  62502-4 0  9998", "line2": "2 40010  97.5408 356.4187 0008968   9.4019 350.7363 14.85454023647176"}, {"name": "HODOYOSHI-4", "line1": "1 40011U 14033B   26156.19973028  .00001445  00000+0  16198-3 0  9997", "line2": "2 40011  97.5449 341.6008 0023528 349.2795  10.7918 14.88099099647029"}, {"name": "DEIMOS-2", "line1": "1 40013U 14033D   26156.19211881  .00001777  00000+0  17322-3 0  9999", "line2": "2 40013  97.5835  31.1015 0001939  58.1667 301.9742 14.93689961635931"}, {"name": "HODOYOSHI-3", "line1": "1 40015U 14033F   26156.19418434  .00001121  00000+0  13513-3 0  9995", "line2": "2 40015  97.6409 319.7187 0033720  36.3620 323.9878 14.85362555645849"}, {"name": "SPOT 7", "line1": "1 40053U 14034A   26156.19595704  .00000510  00000+0  11330-3 0  9990", "line2": "2 40053  98.0629 218.9959 0001179  83.2852 276.8483 14.60947744635386"}, {"name": "SKYSAT-B", "line1": "1 40072U 14037D   26156.15562956  .00001661  00000+0  18767-3 0  9992", "line2": "2 40072  98.3831 114.4354 0004781 330.7388  29.3559 14.87996119644171"}, {"name": "WORLDVIEW-3 (WV-3)", "line1": "1 40115U 14048A   26156.17358992  .00000944  00000+0  11692-3 0  9990", "line2": "2 40115  97.8567 231.1723 0001862  44.3317 315.8047 14.85001386640120"}, {"name": "GAOFEN-2", "line1": "1 40118U 14049A   26156.21682611  .00001064  00000+0  14459-3 0  9995", "line2": "2 40118  98.0109 220.4350 0005885 274.6149  85.4391 14.80887505637460"}, {"name": "YAOGAN-21", "line1": "1 40143U 14053A   26156.16496483  .00006153  00000+0  24033-3 0  9995", "line2": "2 40143  97.1477 196.9177 0009579 128.0582 232.1522 15.26188373653123"}, {"name": "YAOGAN-22", "line1": "1 40275U 14063A   26156.01751833 -.00000054  00000+0 -17867-4 0  9993", "line2": "2 40275 100.7710 307.0893 0006059 213.1718 146.9013 13.15530642558214"}, {"name": "ASNARO", "line1": "1 40298U 14070A   26155.77759794  .00008680  00000+0  40671-3 0  9991", "line2": "2 40298  97.3449 232.2295 0004004 164.9559 195.1796 15.19927087642125"}, {"name": "YAOGAN-24", "line1": "1 40310U 14072A   26156.22031266  .00001069  00000+0  16197-3 0  9996", "line2": "2 40310  98.1479 293.4578 0012856 306.0011  54.0006 14.76208017621953"}, {"name": "CBERS 4", "line1": "1 40336U 14079A   26156.18786894  .00000242  00000+0  98956-4 0  9996", "line2": "2 40336  98.3532 213.3953 0002072  76.6953 283.4464 14.35506266602233"}, {"name": "YAOGAN-26", "line1": "1 40362U 14088A   26156.16789106  .00028209  00000+0  56166-3 0  9991", "line2": "2 40362  97.0645 156.6632 0006676  93.5277 266.6737 15.46853730635840"}, {"name": "SMAP", "line1": "1 40376U 15003A   26156.11398992  .00000528  00000+0  11128-3 0  9991", "line2": "2 40376  98.1276 163.3796 0001256  90.7211 269.4135 14.63355862605851"}, {"name": "KOMPSAT-3A", "line1": "1 40536U 15014A   26156.13388539  .00028362  00000+0  41975-3 0  9998", "line2": "2 40536  97.6888 146.6204 0055440 218.5789 141.1497 15.53431510619941"}, {"name": "SENTINEL-2A", "line1": "1 40697U 15028A   26156.11678897  .00000121  00000+0  62946-4 0  9993", "line2": "2 40697  98.5683 231.1392 0001067  83.6479 276.4826 14.30820132572002"}, {"name": "GAOFEN-8", "line1": "1 40701U 15030A   26156.17629506  .00019412  00000+0  40589-3 0  9992", "line2": "2 40701  97.6910 348.8286 0007829 232.9544 127.0989 15.45499595609591"}, {"name": "CARBONITE 1 (CBNT-1)", "line1": "1 40718U 15032D   26156.17705583  .00001557  00000+0  19493-3 0  9993", "line2": "2 40718  97.6502 334.7467 0014087 340.1482  19.9182 14.83547742587563"}, {"name": "YAOGAN-27", "line1": "1 40878U 15040A   26156.24533007  .00000391  00000+0  11421-2 0  9994", "line2": "2 40878 100.1150 143.1468 0007424 240.5639 119.4734 13.16070390516090"}, {"name": "GAOFEN-9 01", "line1": "1 40894U 15047A   26156.18638586  .00001147  00000+0  14697-3 0  9999", "line2": "2 40894  97.6286 192.4261 0027435 176.2515 183.8910 14.82860844578418"}, {"name": "YAOGAN-28", "line1": "1 41026U 15064A   26156.20240553  .00008027  00000+0  30284-3 0  9996", "line2": "2 41026  97.3065 294.7107 0009621 227.4304 132.6124 15.27259557588856"}, {"name": "YAOGAN-29", "line1": "1 41038U 15069A   26156.23592406  .00000546  00000+0  73755-4 0  9993", "line2": "2 41038  98.0026 184.8495 0002943  73.7752 286.3784 14.83074881568855"}, {"name": "KENT RIDGE 1", "line1": "1 41167U 15077B   26156.17928022  .00004867  00000+0  16885-3 0  9995", "line2": "2 41167  14.9812 355.2827 0008323  68.6369 291.4841 15.23057212579268"}, {"name": "GAOFEN-4", "line1": "1 41194U 15083A   26156.01377112 -.00000322  00000+0  00000+0 0  9994", "line2": "2 41194   0.3261  83.7940 0004305 109.1638 171.1502  1.00270105 38402"}, {"name": "JASON-3", "line1": "1 41240U 16002A   26156.19681278 -.00000065  00000+0 -10722-4 0  9990", "line2": "2 41240  66.0390 151.0438 0008604 273.2368  86.7666 12.87627708485709"}, {"name": "SENTINEL-3A", "line1": "1 41335U 16011A   26156.15422808  .00000134  00000+0  73534-4 0  9998", "line2": "2 41335  98.6251 223.7101 0001310 105.6853 254.4472 14.26736668536346"}, {"name": "ZIYUAN 3-02 (ZY 3-02)", "line1": "1 41556U 16033A   26156.21956924  .00005524  00000+0  24915-3 0  9991", "line2": "2 41556  97.3832 232.2224 0011908 336.9069  23.1630 15.21359871556167"}, {"name": "CARTOSAT-2C", "line1": "1 41599U 16040A   26155.34876501  .00003511  00000+0  16985-3 0  9993", "line2": "2 41599  97.4487 215.5025 0009537 171.8851 188.2540 15.19210003551768"}, {"name": "SKYSAT-C1", "line1": "1 41601U 16040C   26156.03547155  .00010604  00000+0  30363-3 0  9991", "line2": "2 41601  96.9565 188.4154 0004280  81.8256 278.3475 15.36087048556003"}]