OBJECT_NAME,OBJECT_ID,EPOCH,MEAN_MOTION,ECCENTRICITY,INCLINATION,RA_OF_ASC_NODE,ARG_OF_PERICENTER,MEAN_ANOMALY,EPHEMERIS_TYPE,CLASSIFICATION_TYPE,NORAD_CAT_ID,ELEMENT_SET_NO,REV_AT_EPOCH,BSTAR,MEAN_MOTION_DOT,MEAN_MOTION_DDOT
ALOS-2,2014-029A,2026-06-04T13:25:35.571072,14.79487434,.0001603,97.9217,252.9044,94.8920,265.2475,0,U,39766,999,64971,.24177425E-3,.1755E-4,0
KAZEOSAT 2,2014-033A,2026-06-05T04:08:23.300160,14.85454023,.0008968,97.5408,356.4187,9.4019,350.7363,0,U,40010,999,64717,.62502E-4,.489E-5,0
HODOYOSHI-4,2014-033B,2026-06-05T04:47:36.696192,14.88099099,.0023528,97.5449,341.6008,349.2795,10.7918,0,U,40011,999,64702,.16198E-3,.1445E-4,0
DEIMOS-2,2014-033D,2026-06-05T04:36:39.065184,14.93689961,.0001939,97.5835,31.1015,58.1667,301.9742,0,U,40013,999,63593,.17322E-3,.1777E-4,0
HODOYOSHI-3,2014-033F,2026-06-05T04:39:37.526976,14.85362555,.003372,97.6409,319.7187,36.3620,323.9878,0,U,40015,999,64584,.13513E-3,.1121E-4,0
SPOT 7,2014-034A,2026-06-05T04:42:10.688256,14.60947744,.0001179,98.0629,218.9959,83.2852,276.8483,0,U,40053,999,63538,.1133E-3,.51E-5,0
SKYSAT-B,2014-037D,2026-06-05T03:44:06.393984,14.87996119,.0004781,98.3831,114.4354,330.7388,29.3559,0,U,40072,999,64417,.18767E-3,.1661E-4,0
WORLDVIEW-3 (WV-3),2014-048A,2026-06-05T04:09:58.169088,14.85001386,.0001862,97.8567,231.1723,44.3317,315.8047,0,U,40115,999,64012,.11692E-3,.944E-5,0
GAOFEN-2,2014-049A,2026-06-05T05:12:13.775904,14.80887505,.0005885,98.0109,220.4350,274.6149,85.4391,0,U,40118,999,63746,.14459E-3,.1064E-4,0
YAOGAN-21,2014-053A,2026-06-05T03:57:32.961312,15.26188373,.0009579,97.1477,196.9177,128.0582,232.1522,0,U,40143,999,65312,.24033E-3,.6153E-4,0
YAOGAN-22,2014-063A,2026-06-05T00:25:13.583712,13.15530642,.0006059,100.7710,307.0893,213.1718,146.9013,0,U,40275,999,55821,-.17867E-4,-.54E-6,0
ASNARO,2014-070A,2026-06-04T18:39:44.462016,15.19927087,.00040045,97.3449,232.2295,164.9559,195.1796,0,U,40298,999,64212,.40670654E-3,.868E-4,0
YAOGAN-24,2014-072A,2026-06-05T05:17:15.013824,14.76208017,.0012856,98.1479,293.4578,306.0011,54.0006,0,U,40310,999,62195,.16197E-3,.1069E-4,0
CBERS 4,2014-079A,2026-06-05T04:30:31.876416,14.35506266,.0002072,98.3532,213.3953,76.6953,283.4464,0,U,40336,999,60223,.98956E-4,.242E-5,0
YAOGAN-26,2014-088A,2026-06-05T04:01:45.787584,15.46853730,.0006676,97.0645,156.6632,93.5277,266.6737,0,U,40362,999,63584,.56166E-3,.28209E-3,0
SMAP,2015-003A,2026-06-05T02:44:08.729088,14.63355862,.0001256,98.1276,163.3796,90.7211,269.4135,0,U,40376,999,60585,.11128E-3,.528E-5,0
KOMPSAT-3A,2015-014A,2026-06-05T03:12:47.697696,15.53431510,.005544,97.6888,146.6204,218.5789,141.1497,0,U,40536,999,61994,.41975E-3,.28362E-3,0
SENTINEL-2A,2015-028A,2026-06-05T02:48:10.567008,14.30820132,.0001067,98.5683,231.1392,83.6479,276.4826,0,U,40697,999,57200,.62946E-4,.121E-5,0
GAOFEN-8,2015-030A,2026-06-05T04:13:51.893184,15.45499595,.0007829,97.6910,348.8286,232.9544,127.0989,0,U,40701,999,60959,.40589E-3,.19412E-3,0
CARBONITE 1 (CBNT-1),2015-032D,2026-06-05T04:14:57.623712,14.83547742,.0014087,97.6502,334.7467,340.1482,19.9182,0,U,40718,999,58756,.19493E-3,.1557E-4,0
YAOGAN-27,2015-040A,2026-06-05T05:53:16.518048,13.16070390,.0007424,100.1150,143.1468,240.5639,119.4734,0,U,40878,999,51609,.11421E-2,.391E-5,0
GAOFEN-9 01,2015-047A,2026-06-05T04:28:23.738304,14.82860844,.0027435,97.6286,192.4261,176.2515,183.8910,0,U,40894,999,57841,.14697E-3,.1147E-4,0
YAOGAN-28,2015-064A,2026-06-05T04:51:27.837792,15.27259557,.0009621,97.3065,294.7107,227.4304,132.6124,0,U,41026,999,58885,.30284E-3,.8027E-4,0
YAOGAN-29,2015-069A,2026-06-05T05:39:43.838784,14.83074881,.0002943,98.0026,184.8495,73.7752,286.3784,0,U,41038,999,56885,.73755E-4,.546E-5,0
KENT RIDGE 1,2015-077B,2026-06-05T04:18:09.811008,15.23057212,.0008323,14.9812,355.2827,68.6369,291.4841,0,U,41167,999,57926,.16885E-3,.4867E-4,0
GAOFEN-4,2015-083A,2026-06-05T00:19:49.824768,1.00270105,.0004305,0.3261,83.7940,109.1638,171.1502,0,U,41194,999,3840,0,-.322E-5,0
JASON-3,2016-002A,2026-06-05T04:43:24.624192,12.87627708,.0008604,66.0390,151.0438,273.2368,86.7666,0,U,41240,999,48570,-.10722E-4,-.65E-6,0
SENTINEL-3A,2016-011A,2026-06-05T03:42:05.306112,14.26736668,.000131,98.6251,223.7101,105.6853,254.4472,0,U,41335,999,53634,.73534E-4,.134E-5,0
ZIYUAN 3-02 (ZY 3-02),2016-033A,2026-06-05T05:16:10.782336,15.21359871,.0011908,97.3832,232.2224,336.9069,23.1630,0,U,41556,999,55616,.24915E-3,.5524E-4,0
CARTOSAT-2C,2016-040A,2026-06-04T08:22:13.296864,15.19210003,.00095375,97.4487,215.5025,171.8851,188.2540,0,U,41599,999,55176,.16984553E-3,.3511E-4,0
SKYSAT-C1,2016-040C,2026-06-05T00:51:04.741920,15.36087048,.000428,96.9565,188.4154,81.8256,278.3475,0,U,41601,999,55600,.30363E-3,.10604E-3,0
